[
  {
    "COMMENT": "GENERATED VIA SPACETRACK.ORG API",
    "ORIGINATOR": "18 SPCS",
    "NORAD_CAT_ID": "54754",
    "OBJECT_NAME": "SWOT",
    "OBJECT_TYPE": "PAYLOAD",
    "CLASSIFICATION_TYPE": "U",
    "INTLDES": "22173A",
    "EPOCH": "2023-05-18 23:00:46",
    "EPOCH_MICROSECONDS": "486368",
    "MEAN_MOTION": "14.0984921",
    "ECCENTRICITY": "0.0001057",
    "INCLINATION": "77.6055",
    "RA_OF_ASC_NODE": "115.444",
    "ARG_OF_PERICENTER": "199.4617",
    "MEAN_ANOMALY": "160.6499",
    "EPHEMERIS_TYPE": "0",
    "ELEMENT_SET_NO": "999",
    "REV_AT_EPOCH": "2162",
    "BSTAR": "0.00010574",
    "MEAN_MOTION_DOT": "0.00000183",
    "MEAN_MOTION_DDOT": "0",
    "FILE": "3911388",
    "TLE_LINE0": "0 SWOT",
    "TLE_LINE1": "1 54754U 22173A   23138.95887137  .00000183  00000-0  10574-3 0  9997",
    "TLE_LINE2": "2 54754  77.6055 115.4440 0001057 199.4617 160.6499 14.09849210 21620",
    "OBJECT_ID": "2022-173A",
    "OBJECT_NUMBER": "54754",
    "SEMIMAJOR_AXIS": "7238.025",
    "PERIOD": "102.139",
    "APOGEE": "860.655",
    "PERIGEE": "859.125",
    "DECAYED": "0"
  },
  {
    "COMMENT": "GENERATED VIA SPACETRACK.ORG API",
    "ORIGINATOR": "18 SPCS",
    "NORAD_CAT_ID": "54754",
    "OBJECT_NAME": "SWOT",
    "OBJECT_TYPE": "PAYLOAD",
    "CLASSIFICATION_TYPE": "U",
    "INTLDES": "22173A",
    "EPOCH": "2023-05-19 09:13:54",
    "EPOCH_MICROSECONDS": "233472",
    "MEAN_MOTION": "14.09849336",
    "ECCENTRICITY": "0.0001049",
    "INCLINATION": "77.6056",
    "RA_OF_ASC_NODE": "114.8598",
    "ARG_OF_PERICENTER": "199.3156",
    "MEAN_ANOMALY": "160.7961",
    "EPHEMERIS_TYPE": "0",
    "ELEMENT_SET_NO": "999",
    "REV_AT_EPOCH": "2168",
    "BSTAR": "0.00010593",
    "MEAN_MOTION_DOT": "0.00000184",
    "MEAN_MOTION_DDOT": "0",
    "FILE": "3911914",
    "TLE_LINE0": "0 SWOT",
    "TLE_LINE1": "1 54754U 22173A   23139.38465548  .00000184  00000-0  10593-3 0  9995",
    "TLE_LINE2": "2 54754  77.6056 114.8598 0001049 199.3156 160.7961 14.09849336 21686",
    "OBJECT_ID": "2022-173A",
    "OBJECT_NUMBER": "54754",
    "SEMIMAJOR_AXIS": "7238.024",
    "PERIOD": "102.139",
    "APOGEE": "860.649",
    "PERIGEE": "859.130",
    "DECAYED": "0"
  },
  {
    "COMMENT": "GENERATED VIA SPACETRACK.ORG API",
    "ORIGINATOR": "18 SPCS",
    "NORAD_CAT_ID": "54754",
    "OBJECT_NAME": "SWOT",
    "OBJECT_TYPE": "PAYLOAD",
    "CLASSIFICATION_TYPE": "U",
    "INTLDES": "22173A",
    "EPOCH": "2023-05-19 22:51:24",
    "EPOCH_MICROSECONDS": "547680",
    "MEAN_MOTION": "14.09849614",
    "ECCENTRICITY": "0.0001054",
    "INCLINATION": "77.6057",
    "RA_OF_ASC_NODE": "114.0809",
    "ARG_OF_PERICENTER": "198.61",
    "MEAN_ANOMALY": "161.5019",
    "EPHEMERIS_TYPE": "0",
    "ELEMENT_SET_NO": "999",
    "REV_AT_EPOCH": "2176",
    "BSTAR": "0.00011236",
    "MEAN_MOTION_DOT": "0.00000195",
    "MEAN_MOTION_DDOT": "0",
    "FILE": "3912278",
    "TLE_LINE0": "0 SWOT",
    "TLE_LINE1": "1 54754U 22173A   23139.95236745  .00000195  00000-0  11236-3 0  9990",
    "TLE_LINE2": "2 54754  77.6057 114.0809 0001054 198.6100 161.5019 14.09849614 21762",
    "OBJECT_ID": "2022-173A",
    "OBJECT_NUMBER": "54754",
    "SEMIMAJOR_AXIS": "7238.023",
    "PERIOD": "102.139",
    "APOGEE": "860.651",
    "PERIGEE": "859.125",
    "DECAYED": "0"
  },
  {
    "COMMENT": "GENERATED VIA SPACETRACK.ORG API",
    "ORIGINATOR": "18 SPCS",
    "NORAD_CAT_ID": "54754",
    "OBJECT_NAME": "SWOT",
    "OBJECT_TYPE": "PAYLOAD",
    "CLASSIFICATION_TYPE": "U",
    "INTLDES": "22173A",
    "EPOCH": "2023-05-20 10:46:43",
    "EPOCH_MICROSECONDS": "566240",
    "MEAN_MOTION": "14.09849898",
    "ECCENTRICITY": "0.0001049",
    "INCLINATION": "77.6058",
    "RA_OF_ASC_NODE": "113.3993",
    "ARG_OF_PERICENTER": "198.3572",
    "MEAN_ANOMALY": "161.7547",
    "EPHEMERIS_TYPE": "0",
    "ELEMENT_SET_NO": "999",
    "REV_AT_EPOCH": "2183",
    "BSTAR": "0.00012011",
    "MEAN_MOTION_DOT": "0.00000209",
    "MEAN_MOTION_DDOT": "0",
    "FILE": "3912819",
    "TLE_LINE0": "0 SWOT",
    "TLE_LINE1": "1 54754U 22173A   23140.44911535  .00000209  00000-0  12011-3 0  9991",
    "TLE_LINE2": "2 54754  77.6058 113.3993 0001049 198.3572 161.7547 14.09849898 21833",
    "OBJECT_ID": "2022-173A",
    "OBJECT_NUMBER": "54754",
    "SEMIMAJOR_AXIS": "7238.022",
    "PERIOD": "102.139",
    "APOGEE": "860.647",
    "PERIGEE": "859.128",
    "DECAYED": "0"
  },
  {
    "COMMENT": "GENERATED VIA SPACETRACK.ORG API",
    "ORIGINATOR": "18 SPCS",
    "NORAD_CAT_ID": "54754",
    "OBJECT_NAME": "SWOT",
    "OBJECT_TYPE": "PAYLOAD",
    "CLASSIFICATION_TYPE": "U",
    "INTLDES": "22173A",
    "EPOCH": "2023-05-20 22:42:02",
    "EPOCH_MICROSECONDS": "576160",
    "MEAN_MOTION": "14.09850158",
    "ECCENTRICITY": "0.0001047",
    "INCLINATION": "77.6058",
    "RA_OF_ASC_NODE": "112.7177",
    "ARG_OF_PERICENTER": "197.7615",
    "MEAN_ANOMALY": "162.3505",
    "EPHEMERIS_TYPE": "0",
    "ELEMENT_SET_NO": "999",
    "REV_AT_EPOCH": "2190",
    "BSTAR": "0.00012147",
    "MEAN_MOTION_DOT": "0.00000211",
    "MEAN_MOTION_DDOT": "0",
    "FILE": "3913175",
    "TLE_LINE0": "0 SWOT",
    "TLE_LINE1": "1 54754U 22173A   23140.94586315  .00000211  00000-0  12147-3 0  9993",
    "TLE_LINE2": "2 54754  77.6058 112.7177 0001047 197.7615 162.3505 14.09850158 21909",
    "OBJECT_ID": "2022-173A",
    "OBJECT_NUMBER": "54754",
    "SEMIMAJOR_AXIS": "7238.022",
    "PERIOD": "102.139",
    "APOGEE": "860.644",
    "PERIGEE": "859.129",
    "DECAYED": "0"
  },
  {
    "COMMENT": "GENERATED VIA SPACETRACK.ORG API",
    "ORIGINATOR": "18 SPCS",
    "NORAD_CAT_ID": "54754",
    "OBJECT_NAME": "SWOT",
    "OBJECT_TYPE": "PAYLOAD",
    "CLASSIFICATION_TYPE": "U",
    "INTLDES": "22173A",
    "EPOCH": "2023-05-21 14:01:44",
    "EPOCH_MICROSECONDS": "158368",
    "MEAN_MOTION": "14.09850444",
    "ECCENTRICITY": "0.0001042",
    "INCLINATION": "77.6059",
    "RA_OF_ASC_NODE": "111.8413",
    "ARG_OF_PERICENTER": "196.869",
    "MEAN_ANOMALY": "163.2432",
    "EPHEMERIS_TYPE": "0",
    "ELEMENT_SET_NO": "999",
    "REV_AT_EPOCH": "2199",
    "BSTAR": "0.00012516",
    "MEAN_MOTION_DOT": "0.00000217",
    "MEAN_MOTION_DDOT": "0",
    "FILE": "3913738",
    "TLE_LINE0": "0 SWOT",
    "TLE_LINE1": "1 54754U 22173A   23141.58453887  .00000217  00000-0  12516-3 0  9997",
    "TLE_LINE2": "2 54754  77.6059 111.8413 0001042 196.8690 163.2432 14.09850444 21997",
    "OBJECT_ID": "2022-173A",
    "OBJECT_NUMBER": "54754",
    "SEMIMAJOR_AXIS": "7238.021",
    "PERIOD": "102.138",
    "APOGEE": "860.640",
    "PERIGEE": "859.131",
    "DECAYED": "0"
  },
  {
    "COMMENT": "GENERATED VIA SPACETRACK.ORG API",
    "ORIGINATOR": "18 SPCS",
    "NORAD_CAT_ID": "54754",
    "OBJECT_NAME": "SWOT",
    "OBJECT_TYPE": "PAYLOAD",
    "CLASSIFICATION_TYPE": "U",
    "INTLDES": "22173A",
    "EPOCH": "2023-05-21 17:26:06",
    "EPOCH_MICROSECONDS": "730656",
    "MEAN_MOTION": "14.09850506",
    "ECCENTRICITY": "0.0001046",
    "INCLINATION": "77.606",
    "RA_OF_ASC_NODE": "111.6466",
    "ARG_OF_PERICENTER": "196.5586",
    "MEAN_ANOMALY": "163.5536",
    "EPHEMERIS_TYPE": "0",
    "ELEMENT_SET_NO": "999",
    "REV_AT_EPOCH": "2201",
    "BSTAR": "0.0001261",
    "MEAN_MOTION_DOT": "0.00000219",
    "MEAN_MOTION_DDOT": "0",
    "FILE": "3913998",
    "TLE_LINE0": "0 SWOT",
    "TLE_LINE1": "1 54754U 22173A   23141.72646679  .00000219  00000-0  12610-3 0  9993",
    "TLE_LINE2": "2 54754  77.6060 111.6466 0001046 196.5586 163.5536 14.09850506 22011",
    "OBJECT_ID": "2022-173A",
    "OBJECT_NUMBER": "54754",
    "SEMIMAJOR_AXIS": "7238.020",
    "PERIOD": "102.138",
    "APOGEE": "860.642",
    "PERIGEE": "859.128",
    "DECAYED": "0"
  },
  {
    "COMMENT": "GENERATED VIA SPACETRACK.ORG API",
    "ORIGINATOR": "18 SPCS",
    "NORAD_CAT_ID": "54754",
    "OBJECT_NAME": "SWOT",
    "OBJECT_TYPE": "PAYLOAD",
    "CLASSIFICATION_TYPE": "U",
    "INTLDES": "22173A",
    "EPOCH": "2023-05-21 22:32:40",
    "EPOCH_MICROSECONDS": "583904",
    "MEAN_MOTION": "14.0985065",
    "ECCENTRICITY": "0.0001045",
    "INCLINATION": "77.606",
    "RA_OF_ASC_NODE": "111.3545",
    "ARG_OF_PERICENTER": "196.4065",
    "MEAN_ANOMALY": "163.7059",
    "EPHEMERIS_TYPE": "0",
    "ELEMENT_SET_NO": "999",
    "REV_AT_EPOCH": "2204",
    "BSTAR": "0.00012993",
    "MEAN_MOTION_DOT": "0.00000226",
    "MEAN_MOTION_DDOT": "0",
    "FILE": "3914061",
    "TLE_LINE0": "0 SWOT",
    "TLE_LINE1": "1 54754U 22173A   23141.93935861  .00000226  00000-0  12993-3 0  9992",
    "TLE_LINE2": "2 54754  77.6060 111.3545 0001045 196.4065 163.7059 14.09850650 22041",
    "OBJECT_ID": "2022-173A",
    "OBJECT_NUMBER": "54754",
    "SEMIMAJOR_AXIS": "7238.020",
    "PERIOD": "102.138",
    "APOGEE": "860.641",
    "PERIGEE": "859.128",
    "DECAYED": "0"
  },
  {
    "COMMENT": "GENERATED VIA SPACETRACK.ORG API",
    "ORIGINATOR": "18 SPCS",
    "NORAD_CAT_ID": "54754",
    "OBJECT_NAME": "SWOT",
    "OBJECT_TYPE": "PAYLOAD",
    "CLASSIFICATION_TYPE": "U",
    "INTLDES": "22173A",
    "EPOCH": "2023-05-22 12:10:10",
    "EPOCH_MICROSECONDS": "861824",
    "MEAN_MOTION": "14.09850928",
    "ECCENTRICITY": "0.0001037",
    "INCLINATION": "77.6061",
    "RA_OF_ASC_NODE": "110.5756",
    "ARG_OF_PERICENTER": "196.0331",
    "MEAN_ANOMALY": "164.0793",
    "EPHEMERIS_TYPE": "0",
    "ELEMENT_SET_NO": "999",
    "REV_AT_EPOCH": "2212",
    "BSTAR": "0.00013408",
    "MEAN_MOTION_DOT": "0.00000233",
    "MEAN_MOTION_DDOT": "0",
    "FILE": "3914693",
    "TLE_LINE0": "0 SWOT",
    "TLE_LINE1": "1 54754U 22173A   23142.50707016  .00000233  00000-0  13408-3 0  9995",
    "TLE_LINE2": "2 54754  77.6061 110.5756 0001037 196.0331 164.0793 14.09850928 22126",
    "OBJECT_ID": "2022-173A",
    "OBJECT_NUMBER": "54754",
    "SEMIMAJOR_AXIS": "7238.019",
    "PERIOD": "102.138",
    "APOGEE": "860.634",
    "PERIGEE": "859.133",
    "DECAYED": "0"
  }
]